[{"OBJECT_NAME":"STARLINK-5524","OBJECT_ID":"2023-064AC","EPOCH":"2026-03-09T13:07:58.611360","MEAN_MOTION":14.98314489,"ECCENTRICITY":0.00036782,"INCLINATION":69.9998,"RA_OF_ASC_NODE":124.9922,"ARG_OF_PERICENTER":267.194,"MEAN_ANOMALY":92.8798,"EPHEMERIS_TYPE":0,"CLASSIFICATION_TYPE":"U","NORAD_CAT_ID":56474,"ELEMENT_SET_NO":999,"REV_AT_EPOCH":15571,"BSTAR":-7.9720758e-5,"MEAN_MOTION_DOT":-1.044e-5,"MEAN_MOTION_DDOT":0},{"OBJECT_NAME":"ION SCV-022","OBJECT_ID":"2025-276S","EPOCH":"2026-03-09T17:53:05.489952","MEAN_MOTION":14.97347265,"ECCENTRICITY":0.00045393,"INCLINATION":97.5376,"RA_OF_ASC_NODE":142.978,"ARG_OF_PERICENTER":154.7099,"MEAN_ANOMALY":205.4346,"EPHEMERIS_TYPE":0,"CLASSIFICATION_TYPE":"U","NORAD_CAT_ID":66682,"ELEMENT_SET_NO":999,"REV_AT_EPOCH":1519,"BSTAR":0.00017276803,"MEAN_MOTION_DOT":1.95e-5,"MEAN_MOTION_DDOT":0}]
